[Satellite]
VERSION=1.1
NAME=STARLINK-1132
NICKNAME=STARLINK-1132
TLE1=1 45044U 20006A   20058.79366441  .00050841  00000-0  36161-3 0  9998
TLE2=2 45044  52.9990  88.7323 0001015  57.1873 302.9242 15.73379478  4978
STATUS=0
